[{"OBJECT_NAME":"MOHAMMED VI-A","OBJECT_ID":"2017-070A","EPOCH":"2026-03-09T23:14:54.770208","MEAN_MOTION":14.771271,"ECCENTRICITY":0.00014633,"INCLINATION":97.9427,"RA_OF_ASC_NODE":142.7067,"ARG_OF_PERICENTER":97.7701,"MEAN_ANOMALY":262.3676,"EPHEMERIS_TYPE":0,"CLASSIFICATION_TYPE":"U","NORAD_CAT_ID":43005,"ELEMENT_SET_NO":999,"REV_AT_EPOCH":44933,"BSTAR":0.00019951362,"MEAN_MOTION_DOT":1.36e-5,"MEAN_MOTION_DDOT":0},{"OBJECT_NAME":"SL-16 DEB","OBJECT_ID":"1999-039C","EPOCH":"2026-03-09T22:20:56.426496","MEAN_MOTION":14.44100065,"ECCENTRICITY":0.01575348,"INCLINATION":97.7216,"RA_OF_ASC_NODE":57.1787,"ARG_OF_PERICENTER":72.7053,"MEAN_ANOMALY":289.1307,"EPHEMERIS_TYPE":0,"CLASSIFICATION_TYPE":"U","NORAD_CAT_ID":25862,"ELEMENT_SET_NO":999,"REV_AT_EPOCH":39847,"BSTAR":0.00035169178,"MEAN_MOTION_DOT":1.359e-5,"MEAN_MOTION_DDOT":0}]
